NORAD_CAT_ID,OBJECT_NAME,OBJECT_TYPE,EPOCH,MEAN_MOTION,ECCENTRICITY,INCLINATION,RA_OF_ASC_NODE,ARG_OF_PERICENTER,MEAN_ANOMALY,BSTAR,MEAN_MOTION_DOT,MEAN_MOTION_DDOT,TLE_LINE0,TLE_LINE1,TLE_LINE2,SEMIMAJOR_AXIS,PERIOD,APOGEE,PERIGEE,DECAYED
52603.0,STARLINK-4016,PAYLOAD,2022-09-28 02:05:22,15.08837366,0.0001869,53.2189,169.2043,52.8063,307.3099,0.00020375,2.956e-05,0.0,0 STARLINK-4016,1 52603U 22052F   22271.08706613  .00002956  00000-0  20375-3 0  9994,2 52603  53.2189 169.2043 0001869  52.8063 307.3099 15.08837366 21651,6917.888000000001,95.438,541.0459999999998,538.46,0.0
52603.0,STARLINK-4016,PAYLOAD,2022-09-29 00:20:48,15.08826242,0.0001915,53.2191,165.0397,55.7321,304.3853,-0.00010323,-1.93e-05,0.0,0 STARLINK-4016,1 52603U 22052F   22272.01444471 -.00001930  00000-0 -10323-3 0  9994,2 52603  53.2191 165.0397 0001915  55.7321 304.3853 15.08826242 21365,6917.922,95.438,541.112,538.4630000000002,0.0
52603.0,STARLINK-4016,PAYLOAD,2022-09-29 09:53:06,15.08832801,0.0001846,53.2185,163.2551,53.4029,306.7133,-4.3248e-05,-9.76e-06,0.0,0 STARLINK-4016,1 52603U 22052F   22272.41188094 -.00000976  00000-0 -43248-4 0  9996,2 52603  53.2185 163.2551 0001846  53.4029 306.7133 15.08832801 21425,6917.901999999999,95.438,541.044,538.49,0.0
52603.0,STARLINK-4016,PAYLOAD,2022-09-29 11:28:29,15.08835989,0.0001815,53.2182,162.9588,50.8843,309.231,-8.1425e-05,-1.584e-05,0.0,0 STARLINK-4016,1 52603U 22052F   22272.47812141 -.00001584  00000-0 -81425-4 0  9994,2 52603  53.2182 162.9588 0001815  50.8843 309.2310 15.08835989 21862,6917.893,95.438,541.013,538.502,0.0
52603.0,STARLINK-4016,PAYLOAD,2022-09-29 21:00:47,15.08843778,0.0001825,53.2182,161.1746,51.3174,308.7982,-2.0472e-05,-6.14e-06,0.0,0 STARLINK-4016,1 52603U 22052F   22272.87555459 -.00000614  00000-0 -20472-4 0  9992,2 52603  53.2182 161.1746 0001825  51.3174 308.7982 15.08843778 21924,6917.869000000002,95.437,540.996,538.471,0.0
52603.0,STARLINK-4016,PAYLOAD,2022-09-30 01:46:57,15.08847379,0.0001865999999999,53.2181,160.2825,50.2925,309.8232,6.7543e-06,-1.81e-06,0.0,0 STARLINK-4016,1 52603U 22052F   22273.07427130 -.00000181  00000-0  67543-5 0  9998,2 52603  53.2181 160.2825 0001866  50.2925 309.8232 15.08847379 21525,6917.858,95.437,541.014,538.432,0.0
52603.0,STARLINK-4016,PAYLOAD,2022-09-30 11:19:14,15.08886312,0.0001665999999999,53.218,158.4985,49.069,311.0446,-0.00036463,-6.094e-05,0.0,0 STARLINK-4016,1 52603U 22052F   22273.47169170 -.00006094  00000-0 -36463-3 0  9994,2 52603  53.2180 158.4985 0001666  49.0690 311.0446 15.08886312 21581,6917.739000000001,95.435,540.756,538.451,0.0
52603.0,STARLINK-4016,PAYLOAD,2022-09-30 20:51:34,15.08839057,0.0001516,53.2181,156.7125,65.09899999999999,295.016,0.00019644,2.84e-05,0.0,0 STARLINK-4016,1 52603U 22052F   22273.86914643  .00002840  00000-0  19644-3 0  9995,2 52603  53.2181 156.7125 0001516  65.0990 295.0160 15.08839057 22077,6917.8830000000025,95.438,540.797,538.7,0.0
52603.0,STARLINK-4016,PAYLOAD,2022-10-01 00:02:21,15.08835409,0.0001899,53.2184,156.1199,48.9539,311.1617,0.00016685,2.368e-05,0.0,0 STARLINK-4016,1 52603U 22052F   22274.00163203  .00002368  00000-0  16685-3 0  9997,2 52603  53.2184 156.1199 0001899  48.9539 311.1617 15.08835409 21666,6917.894,95.438,541.073,538.446,0.0
52603.0,STARLINK-4016,PAYLOAD,2022-10-01 09:34:39,15.08837516,0.0001915,53.218,154.3357,54.1527,305.9642,0.00014445,2.011e-05,0.0,0 STARLINK-4016,1 52603U 22052F   22274.39907310  .00002011  00000-0  14445-3 0  9991,2 52603  53.2180 154.3357 0001915  54.1527 305.9642 15.08837516 22158,6917.888000000001,95.438,541.078,538.428,0.0
52603.0,STARLINK-4016,PAYLOAD,2022-10-01 20:42:21,15.08840323,0.0001950999999999,53.2182,152.2539,52.4832,307.6337,6.3727e-05,7.26e-06,0.0,0 STARLINK-4016,1 52603U 22052F   22274.86275357  .00000726  00000-0  63727-4 0  9991,2 52603  53.2182 152.2539 0001951  52.4832 307.6337 15.08840323 22227,6917.879,95.438,541.094,538.395,0.0
52603.0,STARLINK-4016,PAYLOAD,2022-10-01 22:17:44,15.08841562,0.0001806,53.2181,151.9556,57.1975,302.9191,6.3452e-05,7.22e-06,0.0,0 STARLINK-4016,1 52603U 22052F   22274.92899243  .00000722  00000-0  63452-4 0  9995,2 52603  53.2181 151.9556 0001806  57.1975 302.9191 15.08841562 22233,6917.876,95.437,540.99,538.491,0.0
52603.0,STARLINK-4016,PAYLOAD,2022-10-02 15:46:59,15.08836828,0.0001836,53.2179,148.6851,56.0106,304.1061,-1.7089000000000002e-05,-5.6e-06,0.0,0 STARLINK-4016,1 52603U 22052F   22275.65763703 -.00000560  00000-0 -17089-4 0  9994,2 52603  53.2179 148.6851 0001836  56.0106 304.1061 15.08836828 21911,6917.89,95.438,541.025,538.485,0.0
52603.0,STARLINK-4016,PAYLOAD,2022-10-02 20:33:08,15.0884298,0.0001851,53.2179,147.7935,54.0082,306.1081,3.9117e-05,3.35e-06,0.0,0 STARLINK-4016,1 52603U 22052F   22275.85635182  .00000335  00000-0  39117-4 0  9999,2 52603  53.2179 147.7935 0001851  54.0082 306.1081 15.08842980 22373,6917.871,95.437,541.0169999999998,538.456,0.0
52603.0,STARLINK-4016,PAYLOAD,2022-10-02 22:08:31,15.08843385,0.0001704,53.2182,147.4953,54.4913,305.6238,6.6118e-05,7.64e-06,0.0,0 STARLINK-4016,1 52603U 22052F   22275.92259064  .00000764  00000-0  66118-4 0  9995,2 52603  53.2182 147.4953 0001704  54.4913 305.6238 15.08843385 22387,6917.87,95.437,540.914,538.556,0.0
52603.0,STARLINK-4016,PAYLOAD,2022-10-03 20:23:54,15.08852348,0.00018,53.2181,143.3318,54.4612,305.6548,0.00014773,2.065e-05,0.0,0 STARLINK-4016,1 52603U 22052F   22276.84994082  .00002065  00000-0  14773-3 0  9998,2 52603  53.2181 143.3318 0001800  54.4612 305.6548 15.08852348 22528,6917.843000000003,95.437,540.953,538.462,0.0
52603.0,STARLINK-4016,PAYLOAD,2022-10-03 21:59:18,15.0884715,0.0001889,53.2178,143.0362,48.4559,311.6594,0.00015838,2.234e-05,0.0,0 STARLINK-4016,1 52603U 22052F   22276.91618420  .00002234  00000-0  15838-3 0  9996,2 52603  53.2178 143.0362 0001889  48.4559 311.6594 15.08847150 22534,6917.859,95.437,541.03,538.4169999999998,0.0
52603.0,STARLINK-4016,PAYLOAD,2022-10-04 21:50:06,15.08837899,0.0001757,53.2201,138.5703,48.4751,311.6392,3.3936e-05,2.52e-06,0.0,0 STARLINK-4016,1 52603U 22052F   22277.90979252  .00000252  00000-0  33936-4 0  9997,2 52603  53.2201 138.5703 0001757  48.4751 311.6392 15.08837899 22251,6917.887,95.438,540.967,538.536,0.0
52603.0,STARLINK-4016,PAYLOAD,2022-10-05 07:22:26,15.08824276,0.0001909,53.2195,136.7882,48.7637,311.3519,-0.00012802,-2.324e-05,0.0,0 STARLINK-4016,1 52603U 22052F   22278.30724760 -.00002324  00000-0 -12802-3 0  9996,2 52603  53.2195 136.7882 0001909  48.7637 311.3519 15.08824276 22743,6917.928000000001,95.439,541.114,538.4730000000002,0.0
52603.0,STARLINK-4016,PAYLOAD,2022-10-05 20:05:30,15.08829056,0.000171,53.2181,134.4115,47.807,312.3067,5.7296e-05,6.24e-06,0.0,0 STARLINK-4016,1 52603U 22052F   22278.83716004  .00000624  00000-0  57296-4 0  9992,2 52603  53.2181 134.4115 0001710  47.8070 312.3067 15.08829056 22822,6917.9140000000025,95.438,540.962,538.596,0.0
52603.0,STARLINK-4016,PAYLOAD,2022-10-06 07:13:13,15.08827262,0.0002005,53.2178,132.3315,46.5576,313.5583,-9.4183e-06,-4.38e-06,0.0,0 STARLINK-4016,1 52603U 22052F   22279.30085044 -.00000438  00000-0 -94183-5 0  9990,2 52603  53.2178 132.3315 0002005  46.5576 313.5583 15.08827262 22892,6917.919,95.438,541.1709999999998,538.3969999999998,0.0
52603.0,STARLINK-4016,PAYLOAD,2022-10-06 18:20:55,15.0882622,0.0001751999999999,53.2186,130.248,48.176,311.9381,0.00019973,2.891e-05,0.0,0 STARLINK-4016,1 52603U 22052F   22279.76452639  .00002891  00000-0  19973-3 0  9993,2 52603  53.2186 130.2480 0001752  48.1760 311.9381 15.08826220 22534,6917.9230000000025,95.438,541.0,538.575,0.0
52603.0,STARLINK-4016,PAYLOAD,2022-10-06 19:56:18,15.08829227,0.0001838,53.2177,129.9513,51.1104,309.0051,0.00023585,3.466e-05,0.0,0 STARLINK-4016,1 52603U 22052F   22279.83076543  .00003466  00000-0  23585-3 0  9990,2 52603  53.2177 129.9513 0001838  51.1104 309.0051 15.08829227 22977,6917.913000000001,95.438,541.05,538.507,0.0
52603.0,STARLINK-4016,PAYLOAD,2022-10-07 07:04:00,15.08840215,0.0001936,53.2183,127.8701,51.03,309.0864,0.00032899,4.952e-05,0.0,0 STARLINK-4016,1 52603U 22052F   22280.29444669  .00004952  00000-0  32899-3 0  9999,2 52603  53.2183 127.8701 0001936  51.0300 309.0864 15.08840215 23047,6917.88,95.438,541.0840000000002,538.405,0.0
52603.0,STARLINK-4016,PAYLOAD,2022-10-07 21:22:28,15.0883704,0.0001896999999999,53.2182,125.1911,52.9947,307.1219,6.9505e-05,8.18e-06,0.0,0 STARLINK-4016,1 52603U 22052F   22280.89060875  .00000818  00000-0  69505-4 0  9990,2 52603  53.2182 125.1911 0001897  52.9947 307.1219 15.08837040 23138,6917.889,95.438,541.067,538.442,0.0
52603.0,STARLINK-4016,PAYLOAD,2022-10-07 22:57:52,15.08826101,0.000157,53.2177,124.8951,60.6755,299.4394,0.00034585,5.218e-05,0.0,0 STARLINK-4016,1 52603U 22052F   22280.95685421  .00005218  00000-0  34585-3 0  9995,2 52603  53.2177 124.8951 0001570  60.6755 299.4394 15.08826101 22719,6917.9230000000025,95.438,540.874,538.702,0.0
52603.0,STARLINK-4016,PAYLOAD,2022-10-08 08:30:10,15.08837269,0.0001646,53.2182,123.1127,52.092,308.0221,0.00014938,2.09e-05,0.0,0 STARLINK-4016,1 52603U 22052F   22281.35428838  .00002090  00000-0  14938-3 0  9992,2 52603  53.2182 123.1127 0001646  52.0920 308.0221 15.08837269 22774,6917.889,95.438,540.8919999999998,538.615,0.0
52603.0,STARLINK-4016,PAYLOAD,2022-10-08 11:40:56,15.08836829,0.0001478,53.2175,122.5164,48.9896,311.1224,0.00011635,1.564e-05,0.0,0 STARLINK-4016,1 52603U 22052F   22281.48676931  .00001564  00000-0  11635-3 0  9991,2 52603  53.2175 122.5164 0001478  48.9896 311.1224 15.08836829 23229,6917.89,95.438,540.778,538.7330000000002,0.0
52603.0,STARLINK-4016,PAYLOAD,2022-10-08 19:37:52,15.0884098,0.0001774999999999,53.2179,121.0302,53.3162,306.7993,1.2956e-05,-8.2e-07,0.0,0 STARLINK-4016,1 52603U 22052F   22281.81797111 -.00000082  00000-0  12956-4 0  9995,2 52603  53.2179 121.0302 0001775  53.3162 306.7993 15.08840980 23278,6917.877,95.437,540.97,538.514,0.0
